
ATLAS 5 CENTAUR DEB
1 44694U 18079BG  26174.46486831 -.00000102  00000+0  00000+0 0  9994
2 44694  13.6311  38.7682 4719926 300.2274  21.2984  1.77423300 46670

COSMOS 2535
1 44421U 19039A   26175.31866664  .00000704  00000+0  74774-4 0  9991
2 44421  97.5757 203.2094 0008252 177.8337 182.2920 14.91954888377705

ETRSS-1
1 44880U 19093B   26175.25349376  .00003817  00000+0  34585-3 0  9992
2 44880  97.7823 259.5077 0012191  38.2216 321.9867 14.95902197353119

FORMOSAT 7-1
1 44349U 19036L   26174.78130427  .00002163  00000+0  15970-3 0  9991
2 44349  23.9990 347.9379 0000438 251.1336 108.9117 14.96529519385640

FORMOSAT 7-2
1 44351U 19036N   26175.09286106  .00002164  00000+0  15988-3 0  9995
2 44351  23.9979 102.2566 0000358 258.4450 101.6011 14.96522171384625

FORMOSAT 7-3
1 44343U 19036E   26175.18911363  .00003522  00000+0  19129-3 0  9996
2 44343  23.9977 130.3456 0000721  26.8070 333.2471 15.09837331384303

FORMOSAT 7-4
1 44350U 19036M   26174.93716651  .00002265  00000+0  16852-3 0  9992
2 44350  23.9988  48.9919 0000880 270.8628  89.1772 14.96522163385083

FORMOSAT 7-5
1 44358U 19036V   26174.80308973  .00001836  00000+0  13164-3 0  9996
2 44358  23.9971 223.7781 0000120 163.1840 196.8664 14.96538122383345

FORMOSAT 7-6
1 44353U 19036Q   26174.95920841  .00002149  00000+0  15851-3 0  9994
2 44353  23.9979 283.9762 0001111 159.5941 200.4605 14.96536047382831

GAOFEN-7
1 44703U 19072A   26175.30277748  .00003465  00000+0  15723-3 0  9994
2 44703  97.2427 236.5011 0018103  17.4669 342.7186 15.21307858368722

GLOBAL-4
1 44499U 19054E   26174.78115046  .00037061  00000+0  37139-3 0  9993
2 44499  45.0043 198.3350 0005061  17.8498 342.2576 15.64929133381392

JILIN-1 GAOFEN 2A
1 44777U 19075A   26175.28543238  .00013059  00000+0  33470-3 0  9994
2 44777  97.4965 259.2416 0007108  66.6185 293.5807 15.39478970365975

JILIN-1 GAOFEN 2B
1 44836U 19086A   26175.25353026  .00004975  00000+0  22860-3 0  9991
2 44836  97.4881 247.2002 0012487 296.9107  63.0852 15.20775442361569

JILIN-1 GAOFEN 3A
1 44312U 19032C   26175.25447479  .00010772  00000+0  34286-3 0  9994
2 44312  44.9760 318.0376 0006084 328.9912  31.0613 15.32769932388927

KL-ALPHA A
1 44785U 19077A   26175.27766395 -.00000092  00000+0 -14897-3 0  9992
2 44785  88.9246 221.7897 0013380  88.6398 271.6288 13.56042927326699

METEOR-M2 2
1 44387U 19038A   26175.26928346  .00000217  00000+0  11363-3 0  9994
2 44387  98.9149 162.6593 0001799  37.9572 322.1733 14.24368362362303

NINGXIA-1 1
1 44779U 19076A   26175.30734860 -.00000048  00000+0  53041-4 0  9995
2 44779  45.0040 148.0321 0011093 197.1572 162.8888 14.02039179338855

NINGXIA-1 5
1 44783U 19076E   26175.24914280 -.00000176  00000+0 -29927-4 0  9998
2 44783  45.0039 147.6313 0010578 187.3943 172.6737 14.02086249338766

NPSAT1
1 44340U 19036B   26175.29050135  .00004286  00000+0  59218-3 0  9997
2 44340  23.9972 171.4923 0006982 290.6807  69.2940 14.74627768373547

PROX-1
1 44339U 19036A   26174.88504997  .00012661  00000+0  12282-2 0  9994
2 44339  23.9951  69.5029 0005849 112.8625 247.2493 14.90752676374479

TAURUS-1 (JINNIUZUO 1)
1 44530U 19059C   26175.31156941  .00004299  00000+0  69086-3 0  9996
2 44530  98.6424 340.5816 0007237 290.3157  69.7271 14.72153562359694

TIANQIN 1 (CAS-6)
1 44879U 19093A   26175.24872257  .00002125  00000+0  19715-3 0  9997
2 44879  97.7802 259.0373 0011921  37.4967 322.7083 14.95462008353102

TIANYAN 01
1 44881U 19093C   26175.24717679  .00000713  00000+0  86392-4 0  9993
2 44881  97.7530 247.3073 0015062  66.0659 294.2133 14.86529999352466

TIANYAN 02
1 44882U 19093D   26175.29882043  .00004828  00000+0  34142-3 0  9993
2 44882  97.7926 270.1572 0013370   4.7159 355.4191 15.05291257353682

WT 1B
1 44316U 19032G   26175.06743043  .00009088  00000+0  34367-3 0  9991
2 44316  44.9717  23.3809 0010102 283.4724  76.5033 15.27296108388139

ZHUHAI-1 03B
1 44536U 19060C   26175.26530648  .00026800  00000+0  40841-3 0  9998
2 44536  97.5532 333.4144 0007388 287.8451  72.1996 15.54437264377426

ZHUHAI-1 03D
1 44538U 19060E   26175.26093929  .00028508  00000+0  50702-3 0  9990
2 44538  97.5390 325.4702 0006616 271.1852  88.8641 15.50106221377170

ZHUHAI-1 03E
1 44539U 19060F   26175.32069843  .00015101  00000+0  36476-3 0  9993
2 44539  97.5616 325.5163 0005310   7.9580 352.1749 15.41264259376864
