OBJECT_NAME,OBJECT_ID,EPOCH,MEAN_MOTION,ECCENTRICITY,INCLINATION,RA_OF_ASC_NODE,ARG_OF_PERICENTER,MEAN_ANOMALY,EPHEMERIS_TYPE,CLASSIFICATION_TYPE,NORAD_CAT_ID,ELEMENT_SET_NO,REV_AT_EPOCH,BSTAR,MEAN_MOTION_DOT,MEAN_MOTION_DDOT
JILIN-1 GAOFEN 3A,2019-032C,2026-06-24T06:06:26.621856,15.32769932,.00060846,44.9760,318.0376,328.9912,31.0613,0,U,44312,999,38892,.34285765E-3,.10772E-3,0
WT 1B,2019-032G,2026-06-24T01:37:05.989152,15.27296108,.00101023,44.9717,23.3809,283.4724,76.5033,0,U,44316,999,38813,.34366796E-3,.9088E-4,0
PROX-1,2019-036A,2026-06-23T21:14:28.317408,14.90752676,.00058495,23.9951,69.5029,112.8625,247.2493,0,U,44339,999,37447,.1228157E-2,.12661E-3,0
NPSAT1,2019-036B,2026-06-24T06:58:19.316640,14.74627768,.00069821,23.9972,171.4923,290.6807,69.2940,0,U,44340,999,37354,.59218299E-3,.4286E-4,0
FORMOSAT 7-3,2019-036E,2026-06-24T04:32:19.417632,15.09837331,.00007214,23.9977,130.3456,26.8070,333.2471,0,U,44343,999,38430,.19128801E-3,.3522E-4,0
FORMOSAT 7-1,2019-036L,2026-06-23T18:45:04.688928,14.96529519,.00004387,23.9990,347.9379,251.1336,108.9117,0,U,44349,999,38564,.15970285E-3,.2163E-4,0
FORMOSAT 7-4,2019-036M,2026-06-23T22:29:31.186464,14.96522163,.00008801,23.9988,48.9919,270.8628,89.1772,0,U,44350,999,38508,.16851619E-3,.2265E-4,0
FORMOSAT 7-2,2019-036N,2026-06-24T02:13:43.195584,14.96522171,.00003588,23.9979,102.2566,258.4450,101.6011,0,U,44351,999,38462,.15987719E-3,.2164E-4,0
FORMOSAT 7-6,2019-036Q,2026-06-23T23:01:15.606624,14.96536047,.00011113,23.9979,283.9762,159.5941,200.4605,0,U,44353,999,38283,.1585107E-3,.2149E-4,0
FORMOSAT 7-5,2019-036V,2026-06-23T19:16:26.952672,14.96538122,.00001208,23.9971,223.7781,163.1840,196.8664,0,U,44358,999,38334,.13164356E-3,.1836E-4,0
METEOR-M2 2,2019-038A,2026-06-24T06:27:46.090944,14.24368362,.00017996,98.9149,162.6593,37.9572,322.1733,0,U,44387,999,36230,.11363213E-3,.217E-5,0
COSMOS 2535,2019-039A,2026-06-24T07:38:52.797696,14.91954888,.00082523,97.5757,203.2094,177.8337,182.2920,0,U,44421,999,37770,.74773684E-4,.704E-5,0
GLOBAL-4,2019-054E,2026-06-23T18:44:51.399744,15.64929133,.00050615,45.0043,198.3350,17.8498,342.2576,0,U,44499,999,38139,.37139288E-3,.37061E-3,0
TAURUS-1 (JINNIUZUO 1),2019-059C,2026-06-24T07:28:39.597024,14.72153562,.00072371,98.6424,340.5816,290.3157,69.7271,0,U,44530,999,35969,.69085539E-3,.4299E-4,0
ZHUHAI-1 03B,2019-060C,2026-06-24T06:22:02.479872,15.54437264,.00073885,97.5532,333.4144,287.8451,72.1996,0,U,44536,999,37742,.40840623E-3,.268E-3,0
ZHUHAI-1 03D,2019-060E,2026-06-24T06:15:45.154656,15.50106221,.00066167,97.5390,325.4702,271.1852,88.8641,0,U,44538,999,37717,.5070202E-3,.28508E-3,0
ZHUHAI-1 03E,2019-060F,2026-06-24T07:41:48.344352,15.41264259,.00053105,97.5616,325.5163,7.9580,352.1749,0,U,44539,999,37686,.36475903E-3,.15101E-3,0
ATLAS 5 CENTAUR DEB,2018-079BG,2026-06-23T11:09:24.621984,1.77423300,.47199266,13.6311,38.7682,300.2274,21.2984,0,U,44694,999,4667,0,-.102E-5,0
GAOFEN-7,2019-072A,2026-06-24T07:15:59.974272,15.21307858,.00181032,97.2427,236.5011,17.4669,342.7186,0,U,44703,999,36872,.15723462E-3,.3465E-4,0
JILIN-1 GAOFEN 2A,2019-075A,2026-06-24T06:51:01.357632,15.39478970,.00071088,97.4965,259.2416,66.6185,293.5807,0,U,44777,999,36597,.33470423E-3,.13059E-3,0
NINGXIA-1 1,2019-076A,2026-06-24T07:22:34.919040,14.02039179,.00110932,45.0040,148.0321,197.1572,162.8888,0,U,44779,999,33885,.53040753E-4,-.48E-6,0
NINGXIA-1 5,2019-076E,2026-06-24T05:58:45.937920,14.02086249,.00105781,45.0039,147.6313,187.3943,172.6737,0,U,44783,999,33876,-.29927311E-4,-.176E-5,0
KL-ALPHA A,2019-077A,2026-06-24T06:39:50.165280,13.56042927,.00133806,88.9246,221.7897,88.6398,271.6288,0,U,44785,999,32669,-.14897112E-3,-.92E-6,0
JILIN-1 GAOFEN 2B,2019-086A,2026-06-24T06:05:05.014464,15.20775442,.00124873,97.4881,247.2002,296.9107,63.0852,0,U,44836,999,36156,.22859553E-3,.4975E-4,0
TIANQIN 1 (CAS-6),2019-093A,2026-06-24T05:58:09.630048,14.95462008,.00119214,97.7802,259.0373,37.4967,322.7083,0,U,44879,999,35310,.1971511E-3,.2125E-4,0
ETRSS-1,2019-093B,2026-06-24T06:05:01.860864,14.95902197,.00121912,97.7823,259.5077,38.2216,321.9867,0,U,44880,999,35311,.34585149E-3,.3817E-4,0
TIANYAN 01,2019-093C,2026-06-24T05:55:56.074656,14.86529999,.00150628,97.7530,247.3073,66.0659,294.2133,0,U,44881,999,35246,.86391597E-4,.713E-5,0
TIANYAN 02,2019-093D,2026-06-24T07:10:18.085152,15.05291257,.00133708,97.7926,270.1572,4.7159,355.4191,0,U,44882,999,35368,.34141692E-3,.4828E-4,0
